start=new Date('2023-06-15T00:00:00.000Z').valueOf();
sats=[{"REF_FRAME":"TEME","EPHEMERIS_TYPE":"0","CLASSIFICATION_TYPE":"U","ELEMENT_SET_NO":"999","OBJECT_TYPE":"PAYLOAD","LAUNCH_DATE":"2020-08-07","INCLINATION":"53.0555","TIME_SYSTEM":"UTC","OBJECT_NAME":"STARLINK-1584","PERIAPSIS":"546.054","SITE":"AFETR","RA_OF_ASC_NODE":"292.9468","DECAY_DATE":null,"OBJECT_ID":"2020-055T","GP_ID":"233911139","CENTER_NAME":"EARTH","TLE_LINE1":"1 46044U 20055T   23165.32238736 -.00000347  00000-0 -43818-5 0  9996","PERIOD":"95.592","BSTAR":"-0.00000438180000","ECCENTRICITY":"0.00016390","MEAN_MOTION_DOT":"-0.00000347","SEMIMAJOR_AXIS":"6925.324","TLE_LINE2":"2 46044  53.0555 292.9468 0001639 110.9617 249.1547 15.06408115158262","MEAN_ELEMENT_THEORY":"SGP4","MEAN_ANOMALY":"249.1547","MEAN_MOTION_DDOT":"0.0000000000000","COUNTRY_CODE":"US","MEAN_MOTION":"15.06408115","FILE":"3932965","APOAPSIS":"548.324","ARG_OF_PERICENTER":"110.9617","EPOCH":"2023-06-14T07:44:14.267904","RCS_SIZE":"LARGE","NORAD_CAT_ID":"46044","REV_AT_EPOCH":"15826"},{"REV_AT_EPOCH":"15781","RCS_SIZE":"LARGE","NORAD_CAT_ID":"46045","EPOCH":"2023-06-14T17:34:47.307072","ARG_OF_PERICENTER":"81.6422","FILE":"3933088","APOAPSIS":"547.890","MEAN_MOTION":"15.06399058","COUNTRY_CODE":"US","MEAN_MOTION_DDOT":"0.0000000000000","MEAN_ANOMALY":"278.4678","MEAN_ELEMENT_THEORY":"SGP4","TLE_LINE2":"2 46045  53.0530 291.1083 0000973  81.6422 278.4678 15.06399058157813","SEMIMAJOR_AXIS":"6925.351","MEAN_MOTION_DOT":"0.00015054","ECCENTRICITY":"0.00009730","BSTAR":"0.00102740000000","PERIOD":"95.592","TLE_LINE1":"1 46045U 20055U   23165.73249198  .00015054  00000-0  10274-2 0  9992","CENTER_NAME":"EARTH","OBJECT_ID":"2020-055U","GP_ID":"233921176","DECAY_DATE":null,"SITE":"AFETR","RA_OF_ASC_NODE":"291.1083","PERIAPSIS":"546.543","OBJECT_NAME":"STARLINK-1591","TIME_SYSTEM":"UTC","LAUNCH_DATE":"2020-08-07","OBJECT_TYPE":"PAYLOAD","INCLINATION":"53.0530","CLASSIFICATION_TYPE":"U","ELEMENT_SET_NO":"999","EPHEMERIS_TYPE":"0","REF_FRAME":"TEME"},{"TLE_LINE1":"1 46047U 20055W   23165.75183697  .00000158  00000-0  29546-4 0  9990","PERIOD":"95.592","DECAY_DATE":null,"CENTER_NAME":"EARTH","OBJECT_ID":"2020-055W","GP_ID":"233943264","ELEMENT_SET_NO":"999","CLASSIFICATION_TYPE":"U","INCLINATION":"53.0560","LAUNCH_DATE":"2020-08-07","OBJECT_TYPE":"PAYLOAD","REF_FRAME":"TEME","EPHEMERIS_TYPE":"0","RA_OF_ASC_NODE":"281.0312","SITE":"AFETR","OBJECT_NAME":"STARLINK-1524","TIME_SYSTEM":"UTC","PERIAPSIS":"546.002","EPOCH":"2023-06-14T18:02:38.714208","ARG_OF_PERICENTER":"123.0783","COUNTRY_CODE":"US","FILE":"3933215","APOAPSIS":"548.451","MEAN_MOTION":"15.06395780","RCS_SIZE":"LARGE","NORAD_CAT_ID":"46047","REV_AT_EPOCH":"15846","SEMIMAJOR_AXIS":"6925.361","MEAN_MOTION_DOT":"0.00000158","MEAN_ELEMENT_THEORY":"SGP4","TLE_LINE2":"2 46047  53.0560 281.0312 0001768 123.0783 237.0376 15.06395780158461","ECCENTRICITY":"0.00017680","BSTAR":"0.00002954600000","MEAN_ANOMALY":"237.0376","MEAN_MOTION_DDOT":"0.0000000000000"},{"TLE_LINE1":"1 46048U 20055X   23165.35005456  .00005665  00000-0  39878-3 0  9999","PERIOD":"95.592","DECAY_DATE":null,"CENTER_NAME":"EARTH","OBJECT_ID":"2020-055X","GP_ID":"233910388","SITE":"AFETR","RA_OF_ASC_NODE":"282.8252","OBJECT_NAME":"STARLINK-1527","TIME_SYSTEM":"UTC","PERIAPSIS":"546.325","ELEMENT_SET_NO":"999","CLASSIFICATION_TYPE":"U","LAUNCH_DATE":"2020-08-07","OBJECT_TYPE":"PAYLOAD","INCLINATION":"53.0556","REF_FRAME":"TEME","EPHEMERIS_TYPE":"0","NORAD_CAT_ID":"46048","RCS_SIZE":"LARGE","REV_AT_EPOCH":"15838","EPOCH":"2023-06-14T08:24:04.713984","ARG_OF_PERICENTER":"105.7172","COUNTRY_CODE":"US","FILE":"3932965","APOAPSIS":"548.045","MEAN_MOTION":"15.06409250","MEAN_ANOMALY":"254.3954","MEAN_MOTION_DDOT":"0.0000000000000","SEMIMAJOR_AXIS":"6925.320","MEAN_MOTION_DOT":"0.00005665","MEAN_ELEMENT_THEORY":"SGP4","TLE_LINE2":"2 46048  53.0556 282.8252 0001242 105.7172 254.3954 15.06409250158388","ECCENTRICITY":"0.00012420","BSTAR":"0.00039878000000"},{"RCS_SIZE":"LARGE","NORAD_CAT_ID":"46049","REV_AT_EPOCH":"15848","EPOCH":"2023-06-14T19:27:34.137792","ARG_OF_PERICENTER":"64.9982","COUNTRY_CODE":"US","FILE":"3933215","APOAPSIS":"548.303","MEAN_MOTION":"15.06386267","MEAN_ANOMALY":"295.1164","MEAN_MOTION_DDOT":"0.0000000000000","SEMIMAJOR_AXIS":"6925.391","MEAN_MOTION_DOT":"0.00018677","MEAN_ELEMENT_THEORY":"SGP4","TLE_LINE2":"2 46049  53.0545 280.7603 0001513  64.9982 295.1164 15.06386267158489","ECCENTRICITY":"0.00015130","BSTAR":"0.00126990000000","TLE_LINE1":"1 46049U 20055Y   23165.81081178  .00018677  00000-0  12699-2 0  9994","PERIOD":"95.593","DECAY_DATE":null,"CENTER_NAME":"EARTH","OBJECT_ID":"2020-055Y","GP_ID":"233944265","SITE":"AFETR","RA_OF_ASC_NODE":"280.7603","OBJECT_NAME":"STARLINK-1530","TIME_SYSTEM":"UTC","PERIAPSIS":"546.208","CLASSIFICATION_TYPE":"U","ELEMENT_SET_NO":"999","INCLINATION":"53.0545","LAUNCH_DATE":"2020-08-07","OBJECT_TYPE":"PAYLOAD","REF_FRAME":"TEME","EPHEMERIS_TYPE":"0"},{"PERIOD":"95.593","TLE_LINE1":"1 46051U 20055AA  23165.78131774  .00004731  00000-0  33637-3 0  9993","GP_ID":"233943014","OBJECT_ID":"2020-055AA","CENTER_NAME":"EARTH","DECAY_DATE":null,"SITE":"AFETR","RA_OF_ASC_NODE":"280.8906","PERIAPSIS":"546.523","TIME_SYSTEM":"UTC","OBJECT_NAME":"STARLINK-1540","INCLINATION":"53.0537","LAUNCH_DATE":"2020-08-07","OBJECT_TYPE":"PAYLOAD","CLASSIFICATION_TYPE":"U","ELEMENT_SET_NO":"999","EPHEMERIS_TYPE":"0","REF_FRAME":"TEME","REV_AT_EPOCH":"15848","RCS_SIZE":"LARGE","NORAD_CAT_ID":"46051","ARG_OF_PERICENTER":"73.6212","EPOCH":"2023-06-14T18:45:05.852736","MEAN_MOTION":"15.06392777","FILE":"3933215","APOAPSIS":"547.948","COUNTRY_CODE":"US","MEAN_MOTION_DDOT":"0.0000000000000","MEAN_ANOMALY":"286.4890","TLE_LINE2":"2 46051  53.0537 280.8906 0001029  73.6212 286.4890 15.06392777158487","MEAN_ELEMENT_THEORY":"SGP4","MEAN_MOTION_DOT":"0.00004731","SEMIMAJOR_AXIS":"6925.371","BSTAR":"0.00033637000000","ECCENTRICITY":"0.00010290"},{"MEAN_MOTION_DDOT":"0.0000000000000","MEAN_ANOMALY":"248.5080","BSTAR":"0.00060068000000","ECCENTRICITY":"0.00009500","TLE_LINE2":"2 46052  53.0540 281.2510 0000950 111.6011 248.5080 15.06390876158433","MEAN_ELEMENT_THEORY":"SGP4","MEAN_MOTION_DOT":"0.00008675","SEMIMAJOR_AXIS":"6925.377","REV_AT_EPOCH":"15843","NORAD_CAT_ID":"46052","RCS_SIZE":"LARGE","MEAN_MOTION":"15.06390876","FILE":"3933215","APOAPSIS":"547.899","COUNTRY_CODE":"US","ARG_OF_PERICENTER":"111.6011","EPOCH":"2023-06-14T16:48:19.642176","PERIAPSIS":"546.584","TIME_SYSTEM":"UTC","OBJECT_NAME":"STARLINK-1541","SITE":"AFETR","RA_OF_ASC_NODE":"281.2510","EPHEMERIS_TYPE":"0","REF_FRAME":"TEME","LAUNCH_DATE":"2020-08-07","OBJECT_TYPE":"PAYLOAD","INCLINATION":"53.0540","CLASSIFICATION_TYPE":"U","ELEMENT_SET_NO":"999","OBJECT_ID":"2020-055AB","GP_ID":"233942764","CENTER_NAME":"EARTH","DECAY_DATE":null,"PERIOD":"95.593","TLE_LINE1":"1 46052U 20055AB  23165.70022734  .00008675  00000-0  60068-3 0  9990"},{"RA_OF_ASC_NODE":"283.0236","SITE":"AFETR","TIME_SYSTEM":"UTC","OBJECT_NAME":"STARLINK-1543","PERIAPSIS":"545.975","CLASSIFICATION_TYPE":"U","ELEMENT_SET_NO":"999","LAUNCH_DATE":"2020-08-07","OBJECT_TYPE":"PAYLOAD","INCLINATION":"53.0532","REF_FRAME":"TEME","EPHEMERIS_TYPE":"0","TLE_LINE1":"1 46053U 20055AC  23165.30583145  .00010603  00000-0  72965-3 0  9998","PERIOD":"95.592","DECAY_DATE":null,"GP_ID":"233910888","OBJECT_ID":"2020-055AC","CENTER_NAME":"EARTH","MEAN_ANOMALY":"264.2942","MEAN_MOTION_DDOT":"0.0000000000000","MEAN_MOTION_DOT":"0.00010603","SEMIMAJOR_AXIS":"6925.352","TLE_LINE2":"2 46053  53.0532 283.0236 0001793  95.8252 264.2942 15.06398867158403","MEAN_ELEMENT_THEORY":"SGP4","BSTAR":"0.00072965000000","ECCENTRICITY":"0.00017930","NORAD_CAT_ID":"46053","RCS_SIZE":"LARGE","REV_AT_EPOCH":"15840","ARG_OF_PERICENTER":"95.8252","EPOCH":"2023-06-14T07:20:23.837280","COUNTRY_CODE":"US","MEAN_MOTION":"15.06398867","FILE":"3932965","APOAPSIS":"548.459"},{"MEAN_MOTION":"15.06374385","FILE":"3933103","APOAPSIS":"548.129","COUNTRY_CODE":"US","ARG_OF_PERICENTER":"69.8107","EPOCH":"2023-06-14T17:04:14.970432","REV_AT_EPOCH":"15792","NORAD_CAT_ID":"46054","RCS_SIZE":"LARGE","BSTAR":"0.00143350000000","ECCENTRICITY":"0.00012090","TLE_LINE2":"2 46054  53.0534 281.2045 0001209  69.8107 290.3012 15.06374385157929","MEAN_ELEMENT_THEORY":"SGP4","MEAN_MOTION_DOT":"0.00021120","SEMIMAJOR_AXIS":"6925.427","MEAN_MOTION_DDOT":"0.0000000000000","MEAN_ANOMALY":"290.3012","GP_ID":"233921381","OBJECT_ID":"2020-055AD","CENTER_NAME":"EARTH","DECAY_DATE":null,"PERIOD":"95.594","TLE_LINE1":"1 46054U 20055AD  23165.71128438  .00021120  00000-0  14335-2 0  9996","EPHEMERIS_TYPE":"0","REF_FRAME":"TEME","INCLINATION":"53.0534","LAUNCH_DATE":"2020-08-07","OBJECT_TYPE":"PAYLOAD","ELEMENT_SET_NO":"999","CLASSIFICATION_TYPE":"U","PERIAPSIS":"546.455","TIME_SYSTEM":"UTC","OBJECT_NAME":"STARLINK-1548","SITE":"AFETR","RA_OF_ASC_NODE":"281.2045"},{"NORAD_CAT_ID":"46055","RCS_SIZE":"LARGE","REV_AT_EPOCH":"15847","COUNTRY_CODE":"US","FILE":"3933215","APOAPSIS":"547.944","MEAN_MOTION":"15.06393347","EPOCH":"2023-06-14T18:18:33.210432","ARG_OF_PERICENTER":"105.5789","MEAN_ANOMALY":"254.5314","MEAN_MOTION_DDOT":"0.0000000000000","ECCENTRICITY":"0.00010260","BSTAR":"0.00061577000000","SEMIMAJOR_AXIS":"6925.369","MEAN_MOTION_DOT":"0.00008901","MEAN_ELEMENT_THEORY":"SGP4","TLE_LINE2":"2 46055  53.0546 280.9774 0001026 105.5789 254.5314 15.06393347158476","DECAY_DATE":null,"CENTER_NAME":"EARTH","GP_ID":"233942514","OBJECT_ID":"2020-055AE","TLE_LINE1":"1 46055U 20055AE  23165.76288438  .00008901  00000-0  61577-3 0  9992","PERIOD":"95.593","OBJECT_NAME":"STARLINK-1554","TIME_SYSTEM":"UTC","PERIAPSIS":"546.523","RA_OF_ASC_NODE":"280.9774","SITE":"AFETR","REF_FRAME":"TEME","EPHEMERIS_TYPE":"0","CLASSIFICATION_TYPE":"U","ELEMENT_SET_NO":"999","OBJECT_TYPE":"PAYLOAD","LAUNCH_DATE":"2020-08-07","INCLINATION":"53.0546"}];
